[{"OBJECT_NAME":"STARLINK-3926","OBJECT_ID":"2022-051L","EPOCH":"2026-03-09T11:49:52.594176","MEAN_MOTION":15.0884103,"ECCENTRICITY":0.00013697,"INCLINATION":53.2168,"RA_OF_ASC_NODE":130.0029,"ARG_OF_PERICENTER":87.579,"MEAN_ANOMALY":272.5359,"EPHEMERIS_TYPE":0,"CLASSIFICATION_TYPE":"U","NORAD_CAT_ID":52543,"ELEMENT_SET_NO":999,"REV_AT_EPOCH":21141,"BSTAR":-1.0370663e-5,"MEAN_MOTION_DOT":-4.53e-6,"MEAN_MOTION_DDOT":0},{"OBJECT_NAME":"OBJECT K","OBJECT_ID":"2017-042K","EPOCH":"2026-03-09T21:28:20.621568","MEAN_MOTION":15.07994228,"ECCENTRICITY":0.00097557,"INCLINATION":97.4104,"RA_OF_ASC_NODE":233.8721,"ARG_OF_PERICENTER":49.2775,"MEAN_ANOMALY":310.9299,"EPHEMERIS_TYPE":0,"CLASSIFICATION_TYPE":"U","NORAD_CAT_ID":42834,"ELEMENT_SET_NO":999,"REV_AT_EPOCH":47201,"BSTAR":0.00042776846,"MEAN_MOTION_DOT":6.528e-5,"MEAN_MOTION_DDOT":0}]
